*******************************************************************************
 Revised: September 28, 2017           Jupiter                              599
 
 PHYSICAL DATA (updated 2018-Aug-15):
  Mass x10^24 (kg)      = 1898.13+-.19    Density (g/cm^3)       =   1.326
  Equat. radius (1 bar) = 71492+-4 km     Polar radius (km)      =  66854+-10
  Vol. Mean Radius (km) = 69911+-6        Flattening             =   0.06487
  Geometric Albedo      = 0.52            Rocky core mass (Mc/M) =  0.0261
  Sid. rot. period (III)= 9h 55m 29.71 s  Sid. rot. rate (rad/s) =  0.00017585 
  Mean solar day, hrs   = ~9.9259         
  GM (km^3/s^2)         = 126686534.911   GM 1-sigma (km^3/s^2)  =  +-1.5
  Equ. grav, ge (m/s^2) = 24.79           Pol. grav, gp (m/s^2)  =  28.34
  Vis. magnitude V(1,0) = -9.40
  Vis. mag. (opposition)= -2.70           Obliquity to orbit     =  3.13 deg
  Sidereal orbit period = 11.861982204 y  Sidereal orbit period  = 4332.589 d
  Mean daily motion     = 0.0831294 deg/d Mean orbit speed, km/s = 13.0697
  Atmos. temp. (1 bar)  = 165+-5 K        Escape speed, km/s    =  59.5           
  A_roche(ice)/Rp       =  2.76           Hill's sphere rad. Rp  = 740
                                 Perihelion   Aphelion     Mean
  Solar Constant (W/m^2)         56           46           51
  Maximum Planetary IR (W/m^2)   13.7         13.4         13.6
  Minimum Planetary IR (W/m^2)   13.7         13.4         13.6
*******************************************************************************
 
 
*******************************************************************************
Ephemeris / WWW_USER Mon Aug  5 18:03:23 2019 Pasadena, USA      / Horizons    
*******************************************************************************
Target body name: Jupiter (599)                   {source: jup341}
Center body name: Earth (399)                     {source: DE431mx}
Center-site name: GEOCENTRIC
*******************************************************************************
Start time      : A.D. 2019-Jul-16 00:00:00.0000 UT      
Stop  time      : A.D. 2019-Jul-18 00:00:00.0000 UT      
Step-size       : 5 minutes
*******************************************************************************
Target pole/equ : IAU_JUPITER                     {West-longitude positive}
Target radii    : 71492.0 x 71492.0 x 66854.0 km  {Equator, meridian, pole}    
Center geodetic : 0.00000000,0.00000000,0.0000000 {E-lon(deg),Lat(deg),Alt(km)}
Center cylindric: 0.00000000,0.00000000,0.0000000 {E-lon(deg),Dxy(km),Dz(km)}
Center pole/equ : High-precision EOP model        {East-longitude positive}
Center radii    : 6378.1 x 6378.1 x 6356.8 km     {Equator, meridian, pole}    
Target primary  : Sun
Vis. interferer : MOON (R_eq= 1737.400) km        {source: DE431mx}
Rel. light bend : Sun, EARTH                      {source: DE431mx}
Rel. lght bnd GM: 1.3271E+11, 3.9860E+05 km^3/s^2                              
Atmos refraction: NO (AIRLESS)
RA format       : DEG
Time format     : CAL 
EOP file        : eop.190802.p191024                                           
EOP coverage    : DATA-BASED 1962-JAN-20 TO 2019-AUG-02. PREDICTS-> 2019-OCT-23
Units conversion: 1 au= 149597870.700 km, c= 299792.458 km/s, 1 day= 86400.0 s 
Table cut-offs 1: Elevation (-90.0deg=NO ),Airmass (>38.000=NO), Daylight (NO )
Table cut-offs 2: Solar elongation (  0.0,180.0=NO ),Local Hour Angle( 0.0=NO )
Table cut-offs 3: RA/DEC angular rate (     0.0=NO )                           
**************************************************************************************************************************************************************
 Date__(UT)__HR:MN:SC.fff     R.A._(ICRF/J2K)_DEC Ang-diam Ob-lon Ob-lat Sl-lon Sl-lat   NP.ang   NP.dist            delta      deldot    ObsEcLon    ObsEcLat
**************************************************************************************************************************************************************
$$SOE
 2019-Jul-17 09:55:00.000     253.98469 -22.13342 44.20996 246.12  -3.07 239.15  -2.92   5.9027    -20.64 4.45930339722459  16.4023943 255.4654852   0.4839047
 2019-Jul-17 10:00:00.000     253.98441 -22.13340 44.20964 249.14  -3.07 242.17  -2.92   5.9028    -20.64 4.45933629173140  16.4036928 255.4652276   0.4838938
 2019-Jul-17 10:05:00.000     253.98413 -22.13338 44.20931 252.17  -3.07 245.20  -2.92   5.9029    -20.64 4.45936918884215  16.4049912 255.4649701   0.4838830
 2019-Jul-17 10:10:00.000     253.98385 -22.13336 44.20898 255.19  -3.07 248.22  -2.92   5.9030    -20.64 4.45940208855666  16.4062895 255.4647126   0.4838721
 2019-Jul-17 10:15:00.000     253.98358 -22.13335 44.20866 258.21  -3.07 251.24  -2.92   5.9032    -20.64 4.45943499087467  16.4075877 255.4644552   0.4838613
 2019-Jul-17 10:20:00.000     253.98330 -22.13333 44.20833 261.23  -3.07 254.26  -2.92   5.9033    -20.64 4.45946789579599  16.4088858 255.4641978   0.4838504
 2019-Jul-17 10:25:00.000     253.98302 -22.13331 44.20801 264.26  -3.07 257.29  -2.92   5.9034    -20.64 4.45950080332042  16.4101838 255.4639404   0.4838396
 2019-Jul-17 10:30:00.000     253.98274 -22.13329 44.20768 267.28  -3.07 260.31  -2.92   5.9035    -20.64 4.45953371344774  16.4114817 255.4636830   0.4838287
 2019-Jul-17 10:35:00.000     253.98247 -22.13328 44.20735 270.30  -3.07 263.33  -2.92   5.9036    -20.64 4.45956662617777  16.4127795 255.4634257   0.4838179
 2019-Jul-17 10:40:00.000     253.98219 -22.13326 44.20703 273.33  -3.07 266.35  -2.92   5.9037    -20.64 4.45959954151029  16.4140772 255.4631684   0.4838070
 2019-Jul-17 10:45:00.000     253.98191 -22.13324 44.20670 276.35  -3.07 269.37  -2.92   5.9039    -20.64 4.45963245944512  16.4153748 255.4629111   0.4837962
 2019-Jul-17 10:50:00.000     253.98164 -22.13322 44.20637 279.37  -3.07 272.40  -2.92   5.9040    -20.64 4.45966537998205  16.4166723 255.4626539   0.4837853
 2019-Jul-17 10:55:00.000     253.98136 -22.13321 44.20605 282.39  -3.07 275.42  -2.92   5.9041    -20.64 4.45969830312091  16.4179697 255.4623967   0.4837745
 2019-Jul-17 11:00:00.000     253.98108 -22.13319 44.20572 285.42  -3.07 278.44  -2.92   5.9042    -20.64 4.45973122886150  16.4192670 255.4621395   0.4837636
 2019-Jul-17 11:05:00.000     253.98080 -22.13317 44.20539 288.44  -3.07 281.46  -2.92   5.9043    -20.64 4.45976415720366  16.4205642 255.4618823   0.4837528
 2019-Jul-17 11:10:00.000     253.98053 -22.13315 44.20507 291.46  -3.07 284.49  -2.92   5.9044    -20.64 4.45979708814718  16.4218614 255.4616252   0.4837419
 2019-Jul-17 11:15:00.000     253.98025 -22.13314 44.20474 294.48  -3.07 287.51  -2.92   5.9046    -20.64 4.45983002169189  16.4231584 255.4613682   0.4837311
 2019-Jul-17 11:20:00.000     253.97997 -22.13312 44.20442 297.51  -3.07 290.53  -2.92   5.9047    -20.64 4.45986295783764  16.4244554 255.4611111   0.4837202
 2019-Jul-17 11:25:00.000     253.97970 -22.13310 44.20409 300.53  -3.07 293.55  -2.92   5.9048    -20.64 4.45989589658423  16.4257523 255.4608541   0.4837094
 2019-Jul-17 11:30:00.000     253.97942 -22.13308 44.20376 303.55  -3.07 296.58  -2.92   5.9049    -20.64 4.45992883793151  16.4270491 255.4605971   0.4836985
 2019-Jul-17 11:35:00.000     253.97914 -22.13307 44.20344 306.58  -3.07 299.60  -2.92   5.9050    -20.64 4.45996178187933  16.4283458 255.4603401   0.4836876
 2019-Jul-17 11:40:00.000     253.97886 -22.13305 44.20311 309.60  -3.07 302.62  -2.92   5.9051    -20.64 4.45999472842749  16.4296424 255.4600832   0.4836768
 2019-Jul-17 11:45:00.000     253.97859 -22.13303 44.20278 312.62  -3.07 305.64  -2.92   5.9053    -20.64 4.46002767757586  16.4309390 255.4598263   0.4836659
 2019-Jul-17 11:50:00.000     253.97831 -22.13302 44.20246 315.64  -3.07 308.66  -2.92   5.9054    -20.64 4.46006062932428  16.4322355 255.4595695   0.4836551
 2019-Jul-17 11:55:00.000     253.97803 -22.13300 44.20213 318.67  -3.07 311.69  -2.92   5.9055    -20.64 4.46009358367260  16.4335319 255.4593126   0.4836442
 2019-Jul-17 12:00:00.000     253.97776 -22.13298 44.20180 321.69  -3.07 314.71  -2.92   5.9056    -20.64 4.46012654062068  16.4348282 255.4590558   0.4836334
 2019-Jul-17 12:05:00.000     253.97748 -22.13296 44.20148 324.71  -3.07 317.73  -2.92   5.9057    -20.64 4.46015950016836  16.4361245 255.4587991   0.4836225
 2019-Jul-17 12:10:00.000     253.97720 -22.13295 44.20115 327.74  -3.07 320.75  -2.92   5.9058    -20.64 4.46019246231550  16.4374207 255.4585423   0.4836117
 2019-Jul-17 12:15:00.000     253.97693 -22.13293 44.20082 330.76  -3.07 323.78  -2.92   5.9060    -20.64 4.46022542706196  16.4387168 255.4582856   0.4836008
 2019-Jul-17 12:20:00.000     253.97665 -22.13291 44.20050 333.78  -3.07 326.80  -2.92   5.9061    -20.64 4.46025839440761  16.4400129 255.4580290   0.4835900
 2019-Jul-17 12:25:00.000     253.97637 -22.13289 44.20017 336.80  -3.07 329.82  -2.92   5.9062    -20.64 4.46029136435233  16.4413089 255.4577723   0.4835791
 2019-Jul-17 12:30:00.000     253.97610 -22.13288 44.19984 339.83  -3.07 332.84  -2.92   5.9063    -20.64 4.46032433689598  16.4426048 255.4575157   0.4835682
 2019-Jul-17 12:35:00.000     253.97582 -22.13286 44.19952 342.85  -3.07 335.86  -2.92   5.9064    -20.64 4.46035731203843  16.4439007 255.4572591   0.4835574
 2019-Jul-17 12:40:00.000     253.97554 -22.13284 44.19919 345.87  -3.07 338.89  -2.92   5.9065    -20.64 4.46039028977956  16.4451965 255.4570026   0.4835465
 2019-Jul-17 12:45:00.000     253.97527 -22.13282 44.19886 348.90  -3.07 341.91  -2.92   5.9067    -20.64 4.46042327011925  16.4464922 255.4567461   0.4835357
 2019-Jul-17 12:50:00.000     253.97499 -22.13281 44.19854 351.92  -3.07 344.93  -2.92   5.9068    -20.64 4.46045625305739  16.4477879 255.4564896   0.4835248
 2019-Jul-17 12:55:00.000     253.97471 -22.13279 44.19821 354.94  -3.07 347.95  -2.92   5.9069    -20.64 4.46048923859387  16.4490836 255.4562331   0.4835140
